SL-16 R/B               
1 23405U 94077B   26173.63251012  .00000277  00000+0  16602-3 0  9993
2 23405  70.9820 131.7064 0003170 324.0008  36.0901 14.15574911631087
ARIANE 40+ R/B          
1 23561U 95021B   26173.19659080  .00000170  00000+0  67847-4 0  9994
2 23561  98.4409 243.1992 0006775 178.3857 241.6565 14.39835628634288
SL-16 R/B               
1 23705U 95058B   26173.64454569  .00000127  00000+0  89107-4 0  9994
2 23705  71.0227 319.8996 0014106 312.9039  47.0899 14.15511388582708
SL-16 R/B               
1 24298U 96051B   26173.62610637  .00000127  00000+0  95185-4 0  9997
2 24298  70.7647 313.1374 0015914 328.9105  31.1071 14.12447731536469
ORBVIEW 2 (SEASTAR)     
1 24883U 97037A   26173.73530687  .00000162  00000+0  72356-4 0  9994
2 24883  98.8693 340.9081 0003290 105.2539 254.9009 14.35555475523546
SL-16 R/B               
1 25400U 98043G   26173.34446028  .00000019  00000+0  26996-4 0  9990
2 25400  98.8365 127.5482 0010931  72.9959 287.2417 14.26069286453902
SL-16 R/B               
1 25407U 98045B   26173.67460998  .00000015  00000+0  31826-4 0  9991
2 25407  71.0118 320.7886 0009129 234.5161 125.5111 14.16202259441967
ISS (ZARYA)             
1 25544U 98067A   26173.73662978  .00008151  00000+0  15395-3 0  9997
2 25544  51.6325 272.6245 0004455 218.9710 141.0958 15.49373286572615
CZ-4B R/B               
1 25732U 99025C   26173.58811904  .00000011  00000+0  26018-4 0  9991
2 25732  98.6480 215.2907 0037854  44.4848 107.9410 14.18284215403039
OKEAN-O                 
1 25860U 99039A   26173.41659185  .00000423  00000+0  62091-4 0  9999
2 25860  97.9313 232.1544 0001474  70.7753 289.3619 14.80472452449889
SL-16 R/B               
1 25861U 99039B   26173.43350319  .00000306  00000+0  45499-4 0  9992
2 25861  97.9834 232.2815 0013368 278.1761  81.7935 14.81849142452376
DELTA 2 R/B             
1 25876U 99041E   26173.48400787  .00000372  00000+0  98013-4 0  9994
2 25876  51.7643 242.6376 0500877 297.6743  57.4212 14.12022464377836
HELIOS 1B               
1 25977U 99064A   26173.49096547  .00000978  00000+0  11291-3 0  9991
2 25977  98.1611  78.7842 0002518  84.1016 276.0486 14.88017704700842
TERRA                   
1 25994U 99068A   26173.84897880  .00000252  00000+0  60347-4 0  9994
2 25994  97.9453 223.1708 0002020 172.1555 303.9588 14.61106688410430
SL-16 R/B               
1 26070U 00006B   26173.57595286  .00000242  00000+0  14725-3 0  9996
2 26070  71.0015 237.2947 0015863  14.6860 345.4721 14.15835716363406
TITAN 4B R/B            
1 26474U 00047B   26173.82223901  .00002295  00000+0  14504-3 0  9994
2 26474  67.9884 104.7115 0045937 281.2092  78.3896 15.10224506408782
ENVISAT                 
1 27386U 02009A   26173.62461257  .00000052  00000+0  30865-4 0  9991
2 27386  98.3836 124.8219 0001393  88.3694  84.9291 14.39065813274260
IDEFIX & ARIANE 42P R/B 
1 27422U 02021B   26173.58310517  .00000136  00000+0  68347-4 0  9992
2 27422  98.5941 111.0079 0010695 236.2490 123.7675 14.31084081259020
AQUA                    
1 27424U 02022A   26173.81237367  .00000533  00000+0  11582-3 0  9991
2 27424  98.4279 143.2076 0000900  57.4018  55.8007 14.62164875284099
CZ-4B R/B               
1 27432U 02024C   26173.39404094  .00000014  00000+0  29994-4 0  9999
2 27432  98.8697 226.1804 0051218  85.7683 285.6202 14.14565049244042
MIDORI II (ADEOS-II)    
1 27597U 02056A   26173.59818426  .00000169  00000+0  84025-4 0  9993
2 27597  98.7880 132.9041 0002145  69.7861 290.3551 14.29351951225285
H-2A R/B                
1 27601U 02056E   26173.46446720  .00000139  00000+0  63424-4 0  9996
2 27601  98.3313 129.9467 0069444 208.6358 261.5081 14.33823928229124
CZ-4B R/B               
1 28059U 03049C   26173.38851359  .00000201  00000+0  57907-4 0  9995
2 28059  98.6897 172.4422 0046874 272.2952  87.2877 14.55102849201824
CZ-2C R/B               
1 28222U 04012C   26173.79871262  .00088536  00000+0  47466-3 0  9993
2 28222  97.7068 250.1189 0009943 261.7063  98.3076 15.79973055220784
SL-16 R/B               
1 28353U 04021B   26173.25255544 -.00000092  00000+0 -23114-4 0  9996
2 28353  71.0004  13.0583 0007049 248.1791 111.8582 14.14606989137620
CZ-4B R/B               
1 28415U 04035C   26173.68935145  .00005829  00000+0  19656-3 0  9995
2 28415  97.3368 206.7008 0029371 317.5904  42.3067 15.30691540195968
CZ-2C R/B               
1 28480U 04046B   26173.45028949  .00000039  00000+0  29917-4 0  9999
2 28480  98.1941  81.9023 0138763 204.6113 154.8406 14.27027420123445
ARIANE 5 R/B            
1 28499U 04049H   26173.72110446  .00000408  00000+0  51541-4 0  9994
2 28499  98.2726 346.1876 0084079  11.5947 348.7177 14.85454285161380
CZ-2D R/B               
1 28738U 05024B   26173.31889394  .00046774  00000+0  38845-3 0  9991
2 28738  97.3487 193.0048 0002424  42.1448 318.0000 15.70053516156140
ALOS (DAICHI)           
1 28931U 06002A   26173.46769617  .00000727  00000+0  12944-3 0  9994
2 28931  98.1324 129.0186 0001255  57.0675 303.0651 14.70058667 88875
