OBJECT_NAME,OBJECT_ID,EPOCH,MEAN_MOTION,ECCENTRICITY,INCLINATION,RA_OF_ASC_NODE,ARG_OF_PERICENTER,MEAN_ANOMALY,EPHEMERIS_TYPE,CLASSIFICATION_TYPE,NORAD_CAT_ID,ELEMENT_SET_NO,REV_AT_EPOCH,BSTAR,MEAN_MOTION_DOT,MEAN_MOTION_DDOT
SL-16 R/B,1994-077B,2026-06-22T15:10:48.874368,14.15574911,.00031707,70.9820,131.7064,324.0008,36.0901,0,U,23405,999,63108,.16602463E-3,.277E-5,0
ARIANE 40+ R/B,1995-021B,2026-06-22T04:43:05.445120,14.39835628,.00067755,98.4409,243.1992,178.3857,241.6565,0,U,23561,999,63428,.6784723E-4,.17E-5,0
SL-16 R/B,1995-058B,2026-06-22T15:28:08.747616,14.15511388,.0014106,71.0227,319.8996,312.9039,47.0899,0,U,23705,999,58270,.89106663E-4,.127E-5,0
SL-16 R/B,1996-051B,2026-06-22T15:01:35.590368,14.12447731,.00159148,70.7647,313.1374,328.9105,31.1071,0,U,24298,999,53646,.95184727E-4,.127E-5,0
ORBVIEW 2 (SEASTAR),1997-037A,2026-06-22T17:38:50.513568,14.35555475,.00032907,98.8693,340.9081,105.2539,254.9009,0,U,24883,999,52354,.72355863E-4,.162E-5,0
SL-16 R/B,1998-043G,2026-06-22T08:16:01.368192,14.26069286,.00109312,98.8365,127.5482,72.9959,287.2417,0,U,25400,999,45390,.26995755E-4,.19E-6,0
SL-16 R/B,1998-045B,2026-06-22T16:11:26.302272,14.16202259,.00091292,71.0118,320.7886,234.5161,125.5111,0,U,25407,999,44196,.31825754E-4,.15E-6,0
ISS (ZARYA),1998-067A,2026-06-22T17:40:44.812992,15.49373286,.00044556,51.6325,272.6245,218.9710,141.0958,0,U,25544,999,57261,.15394615E-3,.8151E-4,0
CZ-4B R/B,1999-025C,2026-06-22T14:06:53.485056,14.18284215,.00378543,98.6480,215.2907,44.4848,107.9410,0,U,25732,999,40303,.26017727E-4,.11E-6,0
OKEAN-O,1999-039A,2026-06-22T09:59:53.535840,14.80472452,.00014746,97.9313,232.1544,70.7753,289.3619,0,U,25860,999,44988,.6209094E-4,.423E-5,0
SL-16 R/B,1999-039B,2026-06-22T10:24:14.675616,14.81849142,.0013368,97.9834,232.2815,278.1761,81.7935,0,U,25861,999,45237,.45499297E-4,.306E-5,0
DELTA 2 R/B,1999-041E,2026-06-22T11:36:58.279968,14.12022464,.05008771,51.7643,242.6376,297.6743,57.4212,0,U,25876,999,37783,.98012589E-4,.372E-5,0
HELIOS 1B,1999-064A,2026-06-22T11:46:59.416608,14.88017704,.00025181,98.1611,78.7842,84.1016,276.0486,0,U,25977,999,70084,.11291065E-3,.978E-5,0
TERRA,1999-068A,2026-06-22T20:22:31.768320,14.61106688,.00020209,97.9453,223.1708,172.1555,303.9588,0,U,25994,999,41043,.60347105E-4,.252E-5,0
SL-16 R/B,2000-006B,2026-06-22T13:49:22.327104,14.15835716,.00158632,71.0015,237.2947,14.6860,345.4721,0,U,26070,999,36340,.14725496E-3,.242E-5,0
TITAN 4B R/B,2000-047B,2026-06-22T19:44:01.450464,15.10224506,.00459377,67.9884,104.7115,281.2092,78.3896,0,U,26474,999,40878,.1450351E-3,.2295E-4,0
ENVISAT,2002-009A,2026-06-22T14:59:26.526048,14.39065813,.00013936,98.3836,124.8219,88.3694,84.9291,0,U,27386,999,27426,.30864858E-4,.52E-6,0
IDEFIX & ARIANE 42P R/B,2002-021B,2026-06-22T13:59:40.286688,14.31084081,.00106951,98.5941,111.0079,236.2490,123.7675,0,U,27422,999,25902,.68347435E-4,.136E-5,0
AQUA,2002-022A,2026-06-22T19:29:49.085088,14.62164875,.00009008,98.4279,143.2076,57.4018,55.8007,0,U,27424,999,28409,.11582365E-3,.533E-5,0
CZ-4B R/B,2002-024C,2026-06-22T09:27:25.137216,14.14565049,.00512185,98.8697,226.1804,85.7683,285.6202,0,U,27432,999,24404,.29994046E-4,.14E-6,0
MIDORI II (ADEOS-II),2002-056A,2026-06-22T14:21:23.120064,14.29351951,.00021458,98.7880,132.9041,69.7861,290.3551,0,U,27597,999,22528,.84024876E-4,.169E-5,0
H-2A R/B,2002-056E,2026-06-22T11:08:49.966080,14.33823928,.00694447,98.3313,129.9467,208.6358,261.5081,0,U,27601,999,22912,.63423746E-4,.139E-5,0
CZ-4B R/B,2003-049C,2026-06-22T09:19:27.574176,14.55102849,.00468743,98.6897,172.4422,272.2952,87.2877,0,U,28059,999,20182,.57906696E-4,.201E-5,0
CZ-2C R/B,2004-012C,2026-06-22T19:10:08.770368,15.79973055,.00099439,97.7068,250.1189,261.7063,98.3076,0,U,28222,999,22078,.47465561E-3,.88536E-3,0
SL-16 R/B,2004-021B,2026-06-22T06:03:40.790016,14.14606989,.00070493,71.0004,13.0583,248.1791,111.8582,0,U,28353,999,13762,-.23113873E-4,-.92E-6,0
CZ-4B R/B,2004-035C,2026-06-22T16:32:39.965280,15.30691540,.00293718,97.3368,206.7008,317.5904,42.3067,0,U,28415,999,19596,.19655888E-3,.5829E-4,0
CZ-2C R/B,2004-046B,2026-06-22T10:48:25.011936,14.27027420,.01387633,98.1941,81.9023,204.6113,154.8406,0,U,28480,999,12344,.29916626E-4,.39E-6,0
ARIANE 5 R/B,2004-049H,2026-06-22T17:18:23.425344,14.85454285,.00840795,98.2726,346.1876,11.5947,348.7177,0,U,28499,999,16138,.51540972E-4,.408E-5,0
CZ-2D R/B,2005-024B,2026-06-22T07:39:12.436416,15.70053516,.00024248,97.3487,193.0048,42.1448,318.0000,0,U,28738,999,15614,.38844717E-3,.46774E-3,0
ALOS (DAICHI),2006-002A,2026-06-22T11:13:28.949088,14.70058667,.00012558,98.1324,129.0186,57.0675,303.0651,0,U,28931,999,8887,.12943893E-3,.727E-5,0
